[{"OBJECT_NAME":"STARLINK-1993","OBJECT_ID":"2021-009AS","EPOCH":"2026-03-09T22:34:43.517280","MEAN_MOTION":15.68612589,"ECCENTRICITY":0.00017457,"INCLINATION":53.0469,"RA_OF_ASC_NODE":338.0743,"ARG_OF_PERICENTER":302.7069,"MEAN_ANOMALY":57.3778,"EPHEMERIS_TYPE":0,"CLASSIFICATION_TYPE":"U","NORAD_CAT_ID":47588,"ELEMENT_SET_NO":999,"REV_AT_EPOCH":28143,"BSTAR":0.0010228331,"MEAN_MOTION_DOT":0.00119587,"MEAN_MOTION_DDOT":0},{"OBJECT_NAME":"STARLINK-11354 [DTC]","OBJECT_ID":"2024-184A","EPOCH":"2026-03-09T16:10:07.979808","MEAN_MOTION":15.69731521,"ECCENTRICITY":8.992e-5,"INCLINATION":53.1597,"RA_OF_ASC_NODE":236.4315,"ARG_OF_PERICENTER":81.1877,"MEAN_ANOMALY":278.9243,"EPHEMERIS_TYPE":0,"CLASSIFICATION_TYPE":"U","NORAD_CAT_ID":61532,"ELEMENT_SET_NO":999,"REV_AT_EPOCH":8041,"BSTAR":3.3663194e-5,"MEAN_MOTION_DOT":3.495e-5,"MEAN_MOTION_DDOT":0}]
